STARLINK-30494          
1 57970U 23151G   26068.36049035 -.00001272  00000+0 -35691-4 0  9993
2 57970  43.0027 192.4566 0001155 241.5536 118.5200 15.28417441137406
STARLINK-32143          
1 60296U 24132U   26068.27515184 -.00000718  00000+0 -12131-4 0  9999
2 60296  53.1612  54.5906 0001289 100.8585 259.2561 15.30188061 91495
